#aV2021 12 28  0  0  0.00000000     288 DD+AD WGS84 FIT  NGA
## 2190 172800.00000000   300.00000000 59576 0.0000000000000
+   32     1  2  3  4  5  6  7  8  9 10 11 12 13 14 15 16 17
+         18 19 20 21 22 23 24 25 26 27 28 29 30 31 32  0  0
+          0  0  0  0  0  0  0  0  0  0  0  0  0  0  0  0  0
+          0  0  0  0  0  0  0  0  0  0  0  0  0  0  0  0  0
+          0  0  0  0  0  0  0  0  0  0  0  0  0  0  0  0  0
++         2  2  2  2  2  2  2  2  2  2  2  2  2  2  2  2  2
++         2  2  2  2  2  2  2  2  2  2  2  2  2  2  2  0  0
++         0  0  0  0  0  0  0  0  0  0  0  0  0  0  0  0  0
++         0  0  0  0  0  0  0  0  0  0  0  0  0  0  0  0  0
++         0  0  0  0  0  0  0  0  0  0  0  0  0  0  0  0  0
%c cc cc ccc ccc cccc cccc cccc cccc ccccc ccccc ccccc ccccc
%c cc cc ccc ccc cccc cccc cccc cccc ccccc ccccc ccccc ccccc
%f  0.0000000  0.000000000  0.00000000000  0.000000000000000
%f  0.0000000  0.000000000  0.00000000000  0.000000000000000
%i    0    0    0    0      0      0      0      0         0
%i    0    0    0    0      0      0      0      0         0
/*      NGA, ST. LOUIS,MO.                                  
/*   EPHEMERIS COMPUTED FROM 2 DAYS OF DATA                 
/*   EPOCHA v7 SMOOTHER                                     
/*   G2139 IERS2010 SATIGS SATAPC                           
*  2021 12 28 14 30  0.00000000
P  1 -13760.561654   5218.168542  21808.940008    472.059193                    
V  1  -4979.772006 -27879.626090   3813.959863     -0.100086                    
P  2  14285.778705  16948.515766 -13891.133651   -647.069467                    
V  2   2414.426264  18799.045576  24377.927649     -0.011240                    
P  3 -22380.748126  11681.113019   7980.688293    -57.132020                    
V  3   6344.008844  -8447.384507  29868.037662     -0.135310                    
P  4 -22316.627016   1828.334728 -14344.197867   -197.353882                    
V  4 -16096.393658  -8714.801427  23853.072644      0.014971                    
P  5  18447.476844   1485.108605 -19268.021923    -65.950880                    
V  5 -16979.702620  17114.849443 -14917.123812     -0.013019                    
P  6   5454.993579  25912.811034  -1454.442836    154.996250                    
V  6  -1715.982223   2255.730759  32273.716088      0.104553                    
P  7  -6983.413802  20624.197132 -14488.414890    295.957505                    
V  7  -5939.643851 -18540.170054 -23425.648270      0.041026                    
P  8 -25781.868233  -5745.250114   4167.476384    -49.874034                    
V  8  -4218.304226  -3922.473684 -31051.946187     -0.014791                    
P  9 -13009.602961  10919.839604 -20500.474086   -359.458621                    
V  9 -24169.240446  -9309.596144  10385.291246      0.009161                    
P 10   6097.066016 -19871.960838  16491.873811   -279.575669                    
V 10  17022.895103 -12056.519408 -21276.051010     -0.092380                    
P 11  12095.231797  19070.829821 -13997.982713      8.553068                    
V 11    -28.349559  17887.794495  24336.732134     -0.040119                    
P 12  23035.653558  -8566.979882   9633.535134   -147.453235                    
V 12  -8820.831804   9359.143513  28782.630077     -0.056204                    
P 13  22935.210755  13455.775422  -1870.666911    236.452924                    
V 13  -3059.648772   1153.011568 -31696.869590      0.058949                    
P 14  -7301.657048  19910.082304  15950.254565    -62.304691                    
V 14 -17336.967930  10764.630194 -21427.604898     -0.058201                    
P 15  26200.816987   2902.071223   4050.158638    -95.782078                    
V 15   4685.813743   4667.625060 -30276.838255      0.028427                    
P 16 -16101.190011  -5972.761258 -20639.506342   -447.311536                    
V 16  20547.906674 -15073.550073 -11359.686298     -0.057406                    
P 17   1445.288960  16259.293359  21385.520142    553.729009                    
V 17 -24160.200166  -9862.915541   9360.064328      0.051509                    
P 18   6666.291098 -21257.626384 -14386.101734    271.428907                    
V 18   4755.052485  17764.304842 -24147.683409     -0.069309                    
P 19  10527.592068  17631.719904  16680.576777     98.146669                    
V 19 -20006.339009  -8192.455579  20789.643525      0.049842                    
P 20  11218.574825  10919.856220 -21471.034492    517.432132                    
V 20 -17986.295973  20547.086640    795.382612     -0.001778                    
P 21 -16507.037021  -4823.939114  21065.909327    154.837988                    
V 21  -5772.137118 -24408.527482  -9863.308387      0.009037                    
P 22 -20885.209768   5250.803822  15577.062001   -430.760751                    
V 22  11779.157857 -15897.669246  21600.167075      0.089372                    
P 23  15701.740025 -20234.438711   6837.662806     17.035413                    
V 23   8225.468462  -3867.359682 -30348.407855     -0.040130                    
P 24  15851.279523   -789.207814  21040.830254    276.398081                    
V 24   6551.167674  26666.273757  -3471.858899      0.010470                    
P 25  19828.371675 -17433.940676   -673.298419    262.539116                    
V 25   2430.590430   2039.104693  31879.095285      0.056663                    
P 26  -5208.872375 -15822.974439 -20701.014501    169.224756                    
V 26  19949.599328 -17116.999932   8395.884935      0.035060                    
P 27 -22766.325921 -12728.389253  -6192.061654     32.730437                    
V 27   7744.317487    718.851445 -30511.390754      0.264538                    
P 28    -53.115070  17304.767977  20741.746644    433.862442                    
V 28 -21009.229979  13680.254100 -11554.380913     -0.078040                    
P 29  16776.240621  -6739.730563 -19520.165555   -459.976279                    
V 29  22055.083028  10982.146987  15139.186936     -0.049242                    
P 30   -577.068938  25686.990524  -6143.470084   -502.696046                    
V 30  -4846.612965  -7309.913456 -30021.724223     -0.027923                    
P 31  -6785.339062 -25090.434435  -4164.013923   -157.228073                    
V 31   2516.548970  -5658.782993  31340.060738     -0.018492                    
P 32  -6701.257764 -16945.614084  19506.875643    -41.783755                    
V 32  23450.322575   7066.887809  14098.551232     -0.057086                    
EOF
